OCO 2                   
1 40059U 14035A   26087.53727778  .00000534  00000+0  12852-3 0  9992
2 40059  98.1954  30.0878 0001512  92.7847 267.3524 14.57115106624303
BRITE-PL2 (HEWELIUSZ)   
1 40119U 14049B   26087.28946829  .00002057  00000+0  19683-3 0  9997
2 40119  97.8992 198.7296 0014408  23.0150 337.1713 14.94273158629366
MMS 1                   
1 40482U 15011A   26087.58335648 -.00001699  00000+0  00000+0 0  9995
2 40482  71.0506 349.8730 8395566 165.8106 356.5037  0.28106805  1305
MMS 2                   
1 40483U 15011B   26087.58335648 -.00001699  00000+0  00000+0 0  9996
2 40483  71.0510 349.8750 8396067 165.8170 356.4874  0.28112044  1301
MMS 3                   
1 40484U 15011C   26087.58335648 -.00001698  00000+0  00000+0 0  9996
2 40484  71.0536 349.8796 8395308 165.8112 356.4931  0.28112632  1300
MMS 4                   
1 40485U 15011D   26087.58335648 -.00001699  00000+0  00000+0 0  9998
2 40485  71.0510 349.8751 8395132 165.8183 356.4807  0.28105772  1306
ASTROSAT                
1 40930U 15052A   26087.35925760  .00002009  00000+0  16336-3 0  9991
2 40930   5.9980  17.0902 0008364 317.5020  42.4461 14.82346888567817
DAMPE                   
1 41173U 15078A   26087.62946380  .00001409  00000+0  50228-4 0  9992
2 41173  97.4589  92.7066 0012474  10.4101 349.7395 15.30564470572228
PISAT                   
1 41784U 16059B   26087.55939724  .00001195  00000+0  21124-3 0  9990
2 41784  97.8193  91.4845 0030571 102.5365 257.9263 14.68820067507909
HXMT (HUIYAN)           
1 42758U 17034A   26087.60146576  .00005750  00000+0  28806-3 0  9992
2 42758  43.0138 271.5127 0031927 351.7520   8.2800 15.17697736485419
FLYING LAPTOP           
1 42831U 17042G   26087.58256046  .00003761  00000+0  30073-3 0  9993
2 42831  97.4331 246.4243 0020031  37.1156 323.1449 15.00639476474362
ZHANGHENG 1-01 (CSES-1) 
1 43194U 18015C   26087.60555410  .00011827  00000+0  53758-3 0  9994
2 43194  97.6784 251.6915 0018321 171.8394 188.3142 15.20760024452398
SALSAT                  
1 46495U 20068K   26087.52869768  .00010340  00000+0  37480-3 0  9990
2 46495  97.8863  85.7603 0008674 217.3238 142.7398 15.28540300303032
IXPE                    
1 49954U 21121A   26087.58335648  .00011968  00000+0  66940-3 0  9995
2 49954   0.2283 206.6493 0006853 300.5428 232.8263 15.09448891  5787
